CCSDS_OEM_VERS = 1.0
CREATION_DATE  = 2017-05-11T11:04:38
ORIGINATOR     = GMAT USER

META_START
OBJECT_NAME          = MOPSSat_alt_35785_km_RAAN_0_115
OBJECT_ID            = SatId
CENTER_NAME          = Earth
REF_FRAME            = EME2000
TIME_SYSTEM          = UTC
START_TIME           = 2017-01-01T00:00:00.000
USEABLE_START_TIME   = 2017-01-01T00:00:00.000
USEABLE_STOP_TIME    = 2017-01-02T00:00:00.000
STOP_TIME            = 2017-01-02T00:00:00.000
INTERPOLATION        = Lagrange
INTERPOLATION_DEGREE = 7 
META_STOP


                                                                                   

2017-01-01T07:29:10.000  -3.095896247941911e+04   3.489611478032168e+04   1.218834654291038e+03  -2.348321078978945e+00  -1.453491263431597e+00  -5.071712897860028e-02
2017-01-01T07:29:20.000  -3.098243961815823e+04   3.488157302545153e+04   1.218327244195221e+03  -2.347106489574978e+00  -1.454859492868532e+00  -5.076488258490324e-02
2017-01-01T07:29:30.000  -3.100590460802383e+04   3.486701759333414e+04   1.217819356739527e+03  -2.345891346425623e+00  -1.456226739024634e+00  -5.081260186629217e-02
2017-01-01T07:29:40.000  -3.102935744324413e+04   3.485244849394901e+04   1.217310992272325e+03  -2.344675650237585e+00  -1.457593002073663e+00  -5.086028682885266e-02
2017-01-01T07:29:50.000  -3.105279811852988e+04   3.483786573697849e+04   1.216802151131611e+03  -2.343459401692157e+00  -1.458958282217248e+00  -5.090793747964284e-02
2017-01-01T07:30:00.000  -3.107622662854506e+04   3.482326933213633e+04   1.216292833656481e+03  -2.342242601472652e+00  -1.460322579654030e+00  -5.095555382561668e-02
2017-01-01T07:30:10.000  -3.109964296802671e+04   3.480865928909360e+04   1.215783040184540e+03  -2.341025250258210e+00  -1.461685894586662e+00  -5.100313587386813e-02
2017-01-01T07:30:20.000  -3.112304713147999e+04   3.479403561766612e+04   1.215272771058442e+03  -2.339807348739492e+00  -1.463048227204013e+00  -5.105068363100999e-02
2017-01-01T07:30:30.000  -3.114643911340505e+04   3.477939832767581e+04   1.214762026621056e+03  -2.338588897607049e+00  -1.464409577694410e+00  -5.109819710363623e-02
2017-01-01T07:30:40.000  -3.116981890829642e+04   3.476474742895001e+04   1.214250807215438e+03  -2.337369897551298e+00  -1.465769946245593e+00  -5.114567629832021e-02
2017-01-01T07:30:50.000  -3.119318651041966e+04   3.475008293146411e+04   1.213739113189811e+03  -2.336150349274309e+00  -1.467129333031753e+00  -5.119312122116257e-02
2017-01-01T07:31:00.000  -3.121654191411279e+04   3.473540484515012e+04   1.213226944890884e+03  -2.334930253473957e+00  -1.468487738231036e+00  -5.124053187840177e-02
2017-01-01T07:31:10.000  -3.123988511366500e+04   3.472071317997326e+04   1.212714302666525e+03  -2.333709610850277e+00  -1.469845162018493e+00  -5.128790827616848e-02
2017-01-01T07:31:20.000  -3.126321610385239e+04   3.470600794559495e+04   1.212201186853999e+03  -2.332488422077451e+00  -1.471201604597239e+00  -5.133525042157257e-02
2017-01-01T07:31:30.000  -3.128653487940075e+04   3.469128915171055e+04   1.211687597791758e+03  -2.331266687831895e+00  -1.472557066167204e+00  -5.138255832161295e-02
2017-01-01T07:31:40.000  -3.130984143512441e+04   3.467655680796235e+04   1.211173535816398e+03  -2.330044408785006e+00  -1.473911546933212e+00  -5.142983198345926e-02
2017-01-01T07:31:50.000  -3.133313576555269e+04   3.466181092417319e+04   1.210659001270820e+03  -2.328821585622626e+00  -1.475265047083242e+00  -5.147707141369320e-02
2017-01-01T07:32:00.000  -3.135641786523832e+04   3.464705151015395e+04   1.210143994497503e+03  -2.327598219028990e+00  -1.476617566806380e+00  -5.152427661893520e-02
2017-01-01T07:32:10.000  -3.137968772868851e+04   3.463227857574640e+04   1.209628515840006e+03  -2.326374309690315e+00  -1.477969106288811e+00  -5.157144760570423e-02
2017-01-01T07:32:20.000  -3.140294535038458e+04   3.461749213081242e+04   1.209112565642590e+03  -2.325149858293855e+00  -1.479319665714965e+00  -5.161858438045827e-02
2017-01-01T07:32:30.000  -3.142619072480424e+04   3.460269218521856e+04   1.208596144249675e+03  -2.323924865526657e+00  -1.480669245268813e+00  -5.166568694963898e-02
2017-01-01T07:32:40.000  -3.144942384643014e+04   3.458787874883061e+04   1.208079252005658e+03  -2.322699332075117e+00  -1.482017845134348e+00  -5.171275531968902e-02
2017-01-01T07:32:50.000  -3.147264470983335e+04   3.457305183146126e+04   1.207561889253083e+03  -2.321473258620622e+00  -1.483365465500450e+00  -5.175978949722151e-02
2017-01-01T07:33:00.000  -3.149585330961742e+04   3.455821144290480e+04   1.207044056333848e+03  -2.320246645842447e+00  -1.484712106557626e+00  -5.180678948890628e-02
2017-01-01T07:33:10.000  -3.151904964041855e+04   3.454335759293717e+04   1.206525753589216e+03  -2.319019494417761e+00  -1.486057768498014e+00  -5.185375530147023e-02
2017-01-01T07:33:20.000  -3.154223369696033e+04   3.452849029128010e+04   1.206006981358553e+03  -2.317791805018683e+00  -1.487402451518558e+00  -5.190068694180788e-02
2017-01-01T07:33:30.000  -3.156540547397118e+04   3.451360954765463e+04   1.205487739981202e+03  -2.316563578316684e+00  -1.488746155816219e+00  -5.194758441681441e-02
2017-01-01T07:33:40.000  -3.158856496617608e+04   3.449871537178650e+04   1.204968029796674e+03  -2.315334814983038e+00  -1.490088881587504e+00  -5.199444773336899e-02
2017-01-01T07:33:50.000  -3.161171216827270e+04   3.448380777342022e+04   1.204447851145127e+03  -2.314105515690010e+00  -1.491430629027055e+00  -5.204127689828596e-02
2017-01-01T07:34:00.000  -3.163484707491386e+04   3.446888676233191e+04   1.203927204367830e+03  -2.312875681111881e+00  -1.492771398326663e+00  -5.208807191827985e-02
2017-01-01T07:34:10.000  -3.165796968077516e+04   3.445395234828513e+04   1.203406089805608e+03  -2.311645311921318e+00  -1.494111189679169e+00  -5.213483280010205e-02
2017-01-01T07:34:20.000  -3.168107998025147e+04   3.443900454122885e+04   1.202884507805757e+03  -2.310414408805632e+00  -1.495450003260913e+00  -5.218155954992792e-02
2017-01-01T07:34:30.000  -3.170417796782501e+04   3.442404335105779e+04   1.202362458713680e+03  -2.309182972447090e+00  -1.496787839253026e+00  -5.222825217410011e-02
2017-01-01T07:34:40.000  -3.172726363792833e+04   3.440906878770135e+04   1.201839942875989e+03  -2.307951003530230e+00  -1.498124697833502e+00  -5.227491067885168e-02
2017-01-01T07:34:50.000  -3.175033698547541e+04   3.439408086077934e+04   1.201316960628495e+03  -2.306718502713529e+00  -1.499460579207959e+00  -5.232153507137988e-02
2017-01-01T07:35:00.000  -3.177339800533181e+04   3.437907957994530e+04   1.200793512308184e+03  -2.305485470657662e+00  -1.500795483578941e+00  -5.236812535877466e-02
2017-01-01T07:35:10.000  -3.179644669243489e+04   3.436406495480896e+04   1.200269598250514e+03  -2.304251908019106e+00  -1.502129411152897e+00  -5.241468154826218e-02
2017-01-01T07:35:20.000  -3.181948304149361e+04   3.434903699512882e+04   1.199745218796133e+03  -2.303017815466052e+00  -1.503462362122762e+00  -5.246120364659698e-02
2017-01-01T07:35:30.000  -3.184250704721196e+04   3.433399571066966e+04   1.199220374285909e+03  -2.301783193666608e+00  -1.504794336680923e+00  -5.250769166051458e-02
2017-01-01T07:35:40.000  -3.186551870428813e+04   3.431894111120191e+04   1.198695065060906e+03  -2.300548043288782e+00  -1.506125335019170e+00  -5.255414559672942e-02
2017-01-01T07:35:50.000  -3.188851800719502e+04   3.430387320664803e+04   1.198169291467492e+03  -2.299312365012423e+00  -1.507455357316018e+00  -5.260056546149278e-02
2017-01-01T07:36:00.000  -3.191150495047660e+04   3.428879200688589e+04   1.197643053850482e+03  -2.298076159513158e+00  -1.508784403753825e+00  -5.264695126119006e-02
2017-01-01T07:36:10.000  -3.193447952863100e+04   3.427369752182614e+04   1.197116352555830e+03  -2.296839427468714e+00  -1.510112474512035e+00  -5.269330300210485e-02
2017-01-01T07:36:20.000  -3.195744173662893e+04   3.425858976107145e+04   1.196589187918748e+03  -2.295602169531012e+00  -1.511439569797149e+00  -5.273962069146514e-02
2017-01-01T07:36:30.000  -3.198039156939508e+04   3.424346873425710e+04   1.196061560275581e+03  -2.294364386354069e+00  -1.512765689812740e+00  -5.278590433639677e-02
2017-01-01T07:36:40.000  -3.200332902192561e+04   3.422833445097417e+04   1.195533469961136e+03  -2.293126078587703e+00  -1.514090834766253e+00  -5.283215394416056e-02
2017-01-01T07:36:50.000  -3.202625408898934e+04   3.421318692096377e+04   1.195004917315451e+03  -2.291887246893495e+00  -1.515415004851699e+00  -5.287836952154865e-02
2017-01-01T07:37:00.000  -3.204916676535005e+04   3.419802615397332e+04   1.194475902678787e+03  -2.290647891932954e+00  -1.516738200262545e+00  -5.292455107533396e-02
2017-01-01T07:37:10.000  -3.207206704576577e+04   3.418285215975592e+04   1.193946426391601e+03  -2.289408014367501e+00  -1.518060421191651e+00  -5.297069861226839e-02
2017-01-01T07:37:20.000  -3.209495492477031e+04   3.416766494821788e+04   1.193416488799698e+03  -2.288167614870445e+00  -1.519381667818687e+00  -5.301681213864347e-02
2017-01-01T07:37:30.000  -3.211783039696815e+04   3.415246452922070e+04   1.192886090247315e+03  -2.286926694110876e+00  -1.520701940327136e+00  -5.306289166088370e-02
2017-01-01T07:37:40.000  -3.214069345691810e+04   3.413725091265872e+04   1.192355231079839e+03  -2.285685252759996e+00  -1.522021238897576e+00  -5.310893718531231e-02
2017-01-01T07:37:50.000  -3.216354409964927e+04   3.412202410811606e+04   1.191823911631829e+03  -2.284443291463114e+00  -1.523339563737463e+00  -5.315494871919042e-02
2017-01-01T07:38:00.000  -3.218638232014488e+04   3.410678412520959e+04   1.191292132238990e+03  -2.283200810867654e+00  -1.524656915051331e+00  -5.320092626967743e-02
2017-01-01T07:38:10.000  -3.220920811345930e+04   3.409153097351170e+04   1.190759893235472e+03  -2.281957811616830e+00  -1.525973293047558e+00  -5.324686984406665e-02
